     2.100          NAVIGATION                              RINEX VERSION / TYPE
fic2rin                                 07/31/2017 00:05:35 PGM / RUN BY / DATE
                                                            END OF HEADER
11 17  7 30  6  0  0.0 -.705728773028D-03 -.261479726760D-11  .000000000000D+00
     .450000000000D+02  .225000000000D+01  .600382151184D-08  .916922171729D+00
    -.100582838058D-06  .170050680172D-01  .686757266521D-05  .515371949959D+04
     .216000000000D+05 -.162050127983D-06  .223434949020D+01 -.232830643654D-06
     .901687228744D+00  .218875000000D+03  .166913616558D+01 -.911895126949D-08
     .267153985179D-09  .100000000000D+01  .196000000000D+04  .000000000000D+00
     .240000000000D+01  .000000000000D+00 -.121071934700D-07  .450000000000D+02
     .144060000000D+05  .400000000000D+01
12 17  7 30  6  0  0.0  .377513002604D-03 -.113686837722D-11  .000000000000D+00
     .103000000000D+03 -.206562500000D+02  .394337854326D-08  .271321612766D+00
    -.108219683170D-05  .659115123563D-02  .686384737492D-05  .515374676323D+04
     .216000000000D+05 -.540167093277D-07  .599831885337D+00  .875443220139D-07
     .989005341779D+00  .261281250000D+03  .911896537568D+00 -.794747390133D-08
    -.316084594764D-09  .100000000000D+01  .196000000000D+04  .000000000000D+00
     .240000000000D+01  .000000000000D+00 -.125728547573D-07  .103000000000D+03
     .144060000000D+05  .400000000000D+01
13 17  7 30  6  0  0.0 -.885990448296D-04 -.795807864051D-12  .000000000000D+00
     .250000000000D+02  .339062500000D+02  .442804158856D-08  .203257878603D+01
     .174529850483D-05  .352505454794D-02  .960007309914D-05  .515369253159D+04
     .216000000000D+05  .502914190292D-07 -.143685569776D+01 -.372529029846D-07
     .968994554970D+00  .199812500000D+03  .179833251325D+01 -.782604027170D-08
     .878608026122D-10  .100000000000D+01  .196000000000D+04  .000000000000D+00
     .240000000000D+01  .000000000000D+00 -.111758708954D-07  .250000000000D+02
     .144060000000D+05  .400000000000D+01
14 17  7 30  6  0  0.0 -.792676582932D-04 -.113686837722D-11  .000000000000D+00
     .280000000000D+02  .435937500000D+02  .454340353671D-08 -.290795555307D+01
     .219605863094D-05  .933795992751D-02  .939890742302D-05  .515367889977D+04
     .216000000000D+05  .176951289177D-06 -.147675113712D+01 -.931322574615D-07
     .961515689114D+00  .196687500000D+03 -.195187544288D+01 -.786497046473D-08
     .935753263594D-10  .100000000000D+01  .196000000000D+04  .000000000000D+00
     .240000000000D+01  .000000000000D+00 -.931322574615D-08  .280000000000D+02
     .144060000000D+05  .400000000000D+01
15 17  7 30  6  0  0.0 -.354011543095D-03 -.568434188608D-12  .000000000000D+00
     .780000000000D+02  .245937500000D+02  .528307720423D-08  .282637427475D+01
     .128895044327D-05  .938124291133D-02  .961124897003D-05  .515358532333D+04
     .216000000000D+05 -.745058059692D-07 -.162728573078D+01 -.132247805595D-06
     .928602750432D+00  .178750000000D+03  .585726595989D+00 -.816033991091D-08
     .825034365993D-10  .100000000000D+01  .196000000000D+04  .000000000000D+00
     .240000000000D+01  .000000000000D+00 -.107102096081D-07  .780000000000D+02
     .144060000000D+05  .400000000000D+01
16 17  7 30  6  0  0.0  .363909639418D-04  .227373675443D-12  .000000000000D+00
     .640000000000D+02 -.254375000000D+02  .382194491363D-08 -.168837340227D+01
    -.129826366901D-05  .928234227467D-02  .720471143723D-05  .515373772621D+04
     .216000000000D+05  .651925802231D-07  .618693857208D+00 -.707805156708D-07
     .989465195448D+00  .255656250000D+03  .463387331565D+00 -.776746640330D-08
    -.236081262304D-09  .100000000000D+01  .196000000000D+04  .000000000000D+00
     .240000000000D+01  .000000000000D+00 -.107102096081D-07  .640000000000D+02
     .144060000000D+05  .400000000000D+01
17 17  7 30  6  0  0.0 -.166526529938D-03  .227373675443D-11  .000000000000D+00
     .760000000000D+02 -.142812500000D+02  .376908556897D-08 -.259297964705D+01
    -.605359673500D-06  .117018846795D-01  .892952084541D-05  .515366622543D+04
     .216000000000D+05  .104308128357D-06  .163595561822D+01 -.670552253723D-07
     .980311286929D+00  .217687500000D+03 -.184728477311D+01 -.751852746256D-08
     .176793078427D-09  .100000000000D+01  .196000000000D+04  .000000000000D+00
     .240000000000D+01  .000000000000D+00 -.111758708954D-07  .760000000000D+02
     .144060000000D+05  .400000000000D+01
19 17  7 30  6  0  0.0 -.493413768709D-03  .170530256582D-11  .000000000000D+00
     .300000000000D+02 -.943750000000D+01  .393052086483D-08  .424017016891D+00
    -.277534127235D-06  .102179169189D-01  .861100852489D-05  .515367329788D+04
     .216000000000D+05 -.230967998505D-06  .168366715092D+01  .111758708954D-06
     .977623588964D+00  .226312500000D+03  .103601748261D+01 -.787925677410D-08
     .978612191697D-10  .100000000000D+01  .196000000000D+04  .000000000000D+00
     .240000000000D+01  .000000000000D+00 -.153668224812D-07  .300000000000D+02
     .144060000000D+05  .400000000000D+01
20 17  7 30  6  0  0.0  .481494236737D-03  .136424205266D-11  .000000000000D+00
     .520000000000D+02 -.452187500000D+02  .539129599769D-08  .275678343873D+01
    -.253692269325D-05  .439940940123D-02  .734440982342D-05  .515371663475D+04
     .216000000000D+05  .484287738800D-07 -.269931976934D+01 -.484287738800D-07
     .927385710846D+00  .220500000000D+03  .162987200463D+01 -.840320717017D-08
    -.414302971667D-10  .100000000000D+01  .196000000000D+04  .000000000000D+00
     .240000000000D+01  .000000000000D+00 -.838190317154D-08  .520000000000D+02
     .144060000000D+05  .400000000000D+01
21 17  7 30  6  0  0.0 -.490888953209D-03  .272848410532D-11  .000000000000D+00
     .970000000000D+02 -.728125000000D+01  .516021494367D-08 -.234430745279D+00
    -.322237610817D-06  .239481147146D-01  .617466866970D-05  .515363292885D+04
     .216000000000D+05 -.378116965294D-06  .259528755539D+01  .253319740295D-06
     .940653226508D+00  .256437500000D+03 -.165393925261D+01 -.883643950175D-08
     .325013538118D-09  .100000000000D+01  .196000000000D+04  .000000000000D+00
     .340000000000D+01  .000000000000D+00 -.977888703346D-08  .970000000000D+02
     .144060000000D+05  .400000000000D+01
22 17  7 30  6  0  0.0 -.712573528290D-04 -.125055521494D-10  .000000000000D+00
     .920000000000D+02 -.383750000000D+02  .547379943429D-08  .308385233323D+01
    -.225752592087D-05  .741845404264D-02  .764615833759D-05  .515376734734D+04
     .216000000000D+05  .163912773132D-06 -.264834264654D+01 -.242143869400D-07
     .924048014972D+00  .212125000000D+03 -.169462024972D+01 -.839499254228D-08
    -.839320675361D-10  .100000000000D+01  .196000000000D+04  .000000000000D+00
     .240000000000D+01  .000000000000D+00 -.176951289177D-07  .920000000000D+02
     .144060000000D+05  .400000000000D+01
23 17  7 30  6  0  0.0 -.215687323362D-03 -.454747350886D-12  .000000000000D+00
     .102000000000D+03  .359687500000D+02  .497520723735D-08  .232044463151D+01
     .181235373020D-05  .118779061595D-01  .106524676085D-04  .515371144485D+04
     .216000000000D+05 -.171363353729D-06 -.156285573035D+01 -.216066837311D-06
     .943848906684D+00  .166656250000D+03 -.243395196691D+01 -.806212153401D-08
     .971469037013D-10  .100000000000D+01  .196000000000D+04  .000000000000D+00
     .240000000000D+01  .000000000000D+00 -.204890966415D-07  .102000000000D+03
     .144060000000D+05  .400000000000D+01
24 17  7 30  6  0  0.0 -.382438302040D-04 -.568434188608D-12  .000000000000D+00
     .460000000000D+02  .453125000000D+02  .518843040467D-08  .176995877384D+01
     .243261456490D-05  .575271307025D-02  .563450157642D-05  .515368409538D+04
     .216000000000D+05 -.135973095894D-06 -.539995042447D+00  .191852450371D-06
     .944753023704D+00  .262250000000D+03  .474579342443D+00 -.849321091918D-08
    -.171435712414D-10  .100000000000D+01  .196000000000D+04  .000000000000D+00
     .240000000000D+01  .000000000000D+00  .279396772385D-08  .460000000000D+02
     .144060000000D+05  .400000000000D+01
25 17  7 30  6  0  0.0 -.430354848504D-03 -.648014975013D-11  .000000000000D+00
     .580000000000D+02 -.163437500000D+02  .424660545959D-08 -.163274554732D+00
    -.888481736183D-06  .648704648484D-02  .647269189358D-05  .515356015778D+04
     .216000000000D+05 -.335276126862D-07  .543782519799D+00  .596046447754D-07
     .976898146906D+00  .260562500000D+03  .830919125494D+00 -.813426739632D-08
    -.340728478423D-09  .100000000000D+01  .196000000000D+04  .000000000000D+00
     .240000000000D+01  .000000000000D+00  .558793544769D-08  .580000000000D+02
     .144060000000D+05  .400000000000D+01
26 17  7 30  6  0  0.0 -.463590957224D-03  .818545231596D-11  .000000000000D+00
     .580000000000D+02 -.220312500000D+02  .456983320904D-08 -.806968940215D+00
    -.113435089588D-05  .180853332859D-02  .674091279507D-05  .515374240303D+04
     .216000000000D+05  .316649675369D-07  .527247076288D+00  .130385160446D-07
     .958633247494D+00  .251218750000D+03  .671802542358D-01 -.820319883902D-08
    -.355371945525D-09  .100000000000D+01  .196000000000D+04  .000000000000D+00
     .240000000000D+01  .000000000000D+00  .745058059692D-08  .580000000000D+02
     .144060000000D+05  .400000000000D+01
27 17  7 30  6  0  0.0  .302196480334D-03  .625277607469D-11  .000000000000D+00
     .420000000000D+02 -.137500000000D+01  .389337646047D-08 -.257972432042D+01
    -.596046447754D-07  .489644194022D-02  .909715890884D-05  .515367356110D+04
     .216000000000D+05 -.204890966415D-07  .158359136234D+01  .223517417908D-07
     .975178589108D+00  .211156250000D+03  .394488581610D+00 -.778818155188D-08
     .172507185617D-09  .100000000000D+01  .196000000000D+04  .000000000000D+00
     .240000000000D+01  .000000000000D+00  .139698386192D-08  .420000000000D+02
     .144060000000D+05  .400000000000D+01
